NORAD_CAT_ID,OBJECT_NAME,OBJECT_TYPE,EPOCH,MEAN_MOTION,ECCENTRICITY,INCLINATION,RA_OF_ASC_NODE,ARG_OF_PERICENTER,MEAN_ANOMALY,BSTAR,MEAN_MOTION_DOT,MEAN_MOTION_DDOT,TLE_LINE0,TLE_LINE1,TLE_LINE2,SEMIMAJOR_AXIS,PERIOD,APOGEE,PERIGEE,DECAYED
52833.0,STARLINK-4086,PAYLOAD,2022-10-06 22:42:55,15.08865535,0.0001498,53.2143,244.4239,59.8334,276.6701,-0.001431,-0.00023006,0.0,0 STARLINK-4086,1 52833U 22062D   22279.94646991 -.00023006  00000-0 -14310-2 0  9997,2 52833  53.2143 244.4239 0001498  59.8334 276.6701 15.08865535  1302,6917.802,95.436,540.7040000000002,538.631,0.0
52833.0,STARLINK-4086,PAYLOAD,2022-10-07 00:00:00,15.0887554,0.0001512,53.2143,244.1839,58.9681,208.5234,-0.0031044,-0.00049404,0.0,0 STARLINK-4086,1 52833U 22062D   22280.00001157 -.00049404  00000-0 -31044-2 0  9998,2 52833  53.2143 244.1839 0001512  58.9681 208.5234 15.08875540 17126,6917.772,95.435,540.683,538.591,0.0
52833.0,STARLINK-4086,PAYLOAD,2022-10-07 14:00:01,15.08835512,0.0001554999999999,53.214,241.5651,55.3687,142.4282,-0.00054779,-8.994e-05,0.0,0 STARLINK-4086,1 52833U 22062D   22280.58334491 -.00008994  00000-0 -54779-3 0  9991,2 52833  53.2140 241.5651 0001555  55.3687 142.4282 15.08835512  1307,6917.894,95.438,540.835,538.683,0.0
52833.0,STARLINK-4086,PAYLOAD,2022-10-07 22:00:00,15.08837865,0.0001495,53.2143,240.0682,61.0743,148.3051,-0.0001889,-3.293e-05,0.0,0 STARLINK-4086,1 52833U 22062D   22280.91667824 -.00003293  00000-0 -18890-3 0  9998,2 52833  53.2143 240.0682 0001495  61.0743 148.3051 15.08837865 17251,6917.887,95.438,540.786,538.7180000000002,0.0
52833.0,STARLINK-4086,PAYLOAD,2022-10-08 06:00:00,15.08836633,0.0001719,53.2174,238.5786,55.9179,164.9764,3.4241e-05,2.57e-06,0.0,0 STARLINK-4086,1 52833U 22062D   22281.25001157  .00000257  00000-0  34241-4 0  9991,2 52833  53.2174 238.5786 0001719  55.9179 164.9764 15.08836633 17309,6917.891,95.438,540.945,538.566,0.0
52833.0,STARLINK-4086,PAYLOAD,2022-10-08 14:00:01,15.08834127,0.0001479,53.2144,237.0755,53.6976,178.8565,-0.0027469,-0.00043733,0.0,0 STARLINK-4086,1 52833U 22062D   22281.58334491 -.00043733  00000-0 -27469-2 0  9997,2 52833  53.2144 237.0755 0001479  53.6976 178.8565 15.08834127  1301,6917.898,95.438,540.786,538.74,0.0
52833.0,STARLINK-4086,PAYLOAD,2022-10-08 22:00:00,15.08824529,0.0001501999999999,53.2147,235.5787,61.5532,182.568,0.0018384,0.00029079,0.0,0 STARLINK-4086,1 52833U 22062D   22281.91667824  .00029079  00000-0  18384-2 0  9994,2 52833  53.2147 235.5787 0001502  61.5532 182.5680 15.08824529  1300,6917.928000000001,95.439,540.832,538.754,0.0
52833.0,STARLINK-4086,PAYLOAD,2022-10-09 14:00:01,15.08849919,0.000146,53.2152,232.5861,54.3916,212.9066,-0.00033947,-5.688e-05,0.0,0 STARLINK-4086,1 52833U 22062D   22282.58334491 -.00005688  00000-0 -33947-3 0  9994,2 52833  53.2152 232.5861 0001460  54.3916 212.9066 15.08849919  1301,6917.85,95.437,540.725,538.705,0.0
52833.0,STARLINK-4086,PAYLOAD,2022-10-10 00:00:00,15.08865764,0.0001541,53.2155,230.7158,59.4108,312.3922,-0.0030779,-0.00048974,0.0,0 STARLINK-4086,1 52833U 22062D   22283.00001157 -.00048974  00000-0 -30779-2 0  9996,2 52833  53.2155 230.7158 0001541  59.4108 312.3922 15.08865764  1304,6917.802,95.436,540.7330000000002,538.601,0.0
52833.0,STARLINK-4086,PAYLOAD,2022-10-10 14:00:01,15.0889029,0.0001601,53.2165,228.0996,55.9505,246.1425,-0.010962,-0.00170875,0.0,0 STARLINK-4086,1 52833U 22062D   22283.58334491 -.00170875  00000-0 -10962-1 0  9996,2 52833  53.2165 228.0996 0001601  55.9505 246.1425 15.08890290  1308,6917.727,95.434,540.6990000000002,538.484,0.0
52833.0,STARLINK-4086,PAYLOAD,2022-10-10 22:00:01,15.08820395,0.0001493,53.2171,226.6049,49.9629,263.7413,0.0017262,0.00027276,0.0,0 STARLINK-4086,1 52833U 22062D   22283.91668981  .00027276  00000-0  17262-2 0  9992,2 52833  53.2171 226.6049 0001493  49.9629 263.7413 15.08820395  1308,6917.94,95.439,540.8380000000002,538.7719999999998,0.0
52833.0,STARLINK-4086,PAYLOAD,2022-10-11 14:00:01,15.08767128,0.0001475,53.2174,223.6123,65.7618,271.092,0.0067961,0.00109336,0.0,0 STARLINK-4086,1 52833U 22062D   22284.58334491  .00109336  00000-0  67961-2 0  9991,2 52833  53.2174 223.6123 0001475  65.7618 271.0920 15.08767128  1304,6918.103,95.442,540.989,538.948,0.0
52833.0,STARLINK-4086,PAYLOAD,2022-10-11 22:00:00,15.08837374,0.0001469,53.2177,222.1168,68.7215,279.688,-3.4994000000000004e-05,-8.45e-06,0.0,0 STARLINK-4086,1 52833U 22062D   22284.91667824 -.00000845  00000-0 -34994-4 0  9996,2 52833  53.2177 222.1168 0001469  68.7215 279.6880 15.08837374 17867,6917.888000000001,95.438,540.77,538.737,0.0
52833.0,STARLINK-4086,PAYLOAD,2022-10-12 14:00:01,15.08832044,0.0001493,53.2168,219.1211,59.8931,311.7127,-0.00028231,-4.777e-05,0.0,0 STARLINK-4086,1 52833U 22062D   22285.58334491 -.00004777  00000-0 -28231-3 0  9995,2 52833  53.2168 219.1211 0001493  59.8931 311.7127 15.08832044  1308,6917.905,95.438,540.803,538.737,0.0
52833.0,STARLINK-4086,PAYLOAD,2022-10-12 22:00:00,15.08840305,0.0001603,53.2173,217.6263,58.592,324.5938,-0.00035318,-5.905e-05,0.0,0 STARLINK-4086,1 52833U 22062D   22285.91667824 -.00005905  00000-0 -35318-3 0  9999,2 52833  53.2173 217.6263 0001603  58.5920 324.5938 15.08840305  1302,6917.879,95.438,540.8530000000002,538.636,0.0
52833.0,STARLINK-4086,PAYLOAD,2022-10-13 06:00:00,15.08833848,0.000154,53.2167,216.1304,57.0893,337.6787,0.001309,0.00020603,0.0,0 STARLINK-4086,1 52833U 22062D   22286.25001157  .00020603  00000-0  13090-2 0  9990,2 52833  53.2167 216.1304 0001540  57.0893 337.6787 15.08833848 18060,6917.899,95.438,540.83,538.6990000000002,0.0
52833.0,STARLINK-4086,PAYLOAD,2022-10-13 14:00:01,15.08848646,0.0001435,53.2173,214.6337,58.7837,347.5825,-0.001215,-0.00019577,0.0,0 STARLINK-4086,1 52833U 22062D   22286.58334491 -.00019577  00000-0 -12150-2 0  9992,2 52833  53.2173 214.6337 0001435  58.7837 347.5825 15.08848646  1309,6917.854,95.437,540.712,538.726,0.0
52833.0,STARLINK-4086,PAYLOAD,2022-10-13 20:00:01,15.08836704,0.0001479,53.2177,213.5121,61.8277,263.3005,7.4218e-05,8.93e-06,0.0,0 STARLINK-4086,1 52833U 22062D   22286.83335648  .00000893  00000-0  74218-4 0  9999,2 52833  53.2177 213.5121 0001479  61.8277 263.3005 15.08836704 18151,6917.89,95.438,540.779,538.732,0.0
52833.0,STARLINK-4086,PAYLOAD,2022-10-13 22:00:00,15.08837865,0.0001501,53.2177,213.1388,60.3301,357.6326,-0.00012229,-2.234e-05,0.0,0 STARLINK-4086,1 52833U 22062D   22286.91667824 -.00002234  00000-0 -12229-3 0  9998,2 52833  53.2177 213.1388 0001501  60.3301 357.6326 15.08837865  1301,6917.887,95.438,540.79,538.714,0.0
52833.0,STARLINK-4086,PAYLOAD,2022-10-14 14:00:01,15.08828831,0.0001406,53.2173,210.1448,62.264,18.889,0.00071224,0.00011062,0.0,0 STARLINK-4086,1 52833U 22062D   22287.58334491  .00011062  00000-0  71224-3 0  9990,2 52833  53.2173 210.1448 0001406  62.2640  18.8890 15.08828831  1307,6917.915,95.438,540.752,538.807,0.0
52833.0,STARLINK-4086,PAYLOAD,2022-10-14 22:00:00,15.08796757,0.0001529,53.2162,208.647,70.1243,22.5808,0.0075729,0.00122187,0.0,0 STARLINK-4086,1 52833U 22062D   22287.91667824  .00122187  00000-0  75729-2 0  9990,2 52833  53.2162 208.6470 0001529  70.1243  22.5808 15.08796757  1307,6918.013000000001,95.44,540.935,538.82,0.0
52833.0,STARLINK-4086,PAYLOAD,2022-10-15 06:00:00,15.08834464,0.0001471,53.2174,207.1544,59.5077,44.8245,0.00029737,4.447e-05,0.0,0 STARLINK-4086,1 52833U 22062D   22288.25001157  .00004447  00000-0  29737-3 0  9996,2 52833  53.2174 207.1544 0001471  59.5077  44.8245 15.08834464 18362,6917.897,95.438,540.78,538.745,0.0
52833.0,STARLINK-4086,PAYLOAD,2022-10-15 14:00:01,15.088488,0.0001220999999999,53.2143,205.6518,69.7359,46.2231,-0.0004046999999999,-6.724e-05,0.0,0 STARLINK-4086,1 52833U 22062D   22288.58334491 -.00006724  00000-0 -40470-3 0  9991,2 52833  53.2143 205.6518 0001221  69.7359  46.2231 15.08848800  1307,6917.853,95.437,540.563,538.874,0.0
52833.0,STARLINK-4086,PAYLOAD,2022-10-15 22:00:01,15.08865674,0.0001372,53.2143,204.156,69.7414,57.8745,-0.0035071,-0.00055711,0.0,0 STARLINK-4086,1 52833U 22062D   22288.91668981 -.00055711  00000-0 -35071-2 0  9992,2 52833  53.2143 204.1560 0001372  69.7414  57.8745 15.08865674  1303,6917.802,95.436,540.616,538.7180000000002,0.0
52833.0,STARLINK-4086,PAYLOAD,2022-10-16 14:00:01,15.08794252,0.0001339,53.2147,201.163,69.6509,81.0906,0.0032914,0.00052419,0.0,0 STARLINK-4086,1 52833U 22062D   22289.58334491  .00052419  00000-0  32914-2 0  9995,2 52833  53.2147 201.1630 0001339  69.6509  81.0906 15.08794252 18566,6918.02,95.44,540.812,538.9590000000002,0.0
52833.0,STARLINK-4086,PAYLOAD,2022-10-16 22:00:00,15.08850155,0.0001475,53.215,199.6676,69.3925,92.9167,-0.0004591999999999,-7.591e-05,0.0,0 STARLINK-4086,1 52833U 22062D   22289.91667824 -.00007591  00000-0 -45920-3 0  9996,2 52833  53.2150 199.6676 0001475  69.3925  92.9167 15.08850155  1300,6917.849,95.437,540.735,538.694,0.0
52833.0,STARLINK-4086,PAYLOAD,2022-10-17 06:00:00,15.08826289,0.0001486999999999,53.2146,198.172,59.6239,114.2743,0.00085394,0.00013323,0.0,0 STARLINK-4086,1 52833U 22062D   22290.25001157  .00013323  00000-0  85394-3 0  9993,2 52833  53.2146 198.1720 0001487  59.6239 114.2743 15.08826289 18668,6917.922,95.438,540.816,538.759,0.0
52833.0,STARLINK-4086,PAYLOAD,2022-10-17 14:00:01,15.08817648,0.0001324,53.2149,196.6736,67.8017,117.7006,0.0037044,0.00059126,0.0,0 STARLINK-4086,1 52833U 22062D   22290.58334491  .00059126  00000-0  37044-2 0  9998,2 52833  53.2149 196.6736 0001324  67.8017 117.7006 15.08817648  1308,6917.949000000001,95.439,540.73,538.898,0.0
52833.0,STARLINK-4086,PAYLOAD,2022-10-17 22:00:00,15.08919477,0.0001424,53.216,195.1795,67.5042,129.5805,-0.011443,-0.00178316,0.0,0 STARLINK-4086,1 52833U 22062D   22290.91667824 -.00178316  00000-0 -11443-1 0  9993,2 52833  53.2160 195.1795 0001424  67.5042 129.5805 15.08919477  1307,6917.637,95.433,540.488,538.5169999999998,0.0
